[{"OBJECT_NAME":"STARLINK-6178","OBJECT_ID":"2023-061P","EPOCH":"2026-03-09T22:00:01.999584","MEAN_MOTION":15.117437,"ECCENTRICITY":0.00016359,"INCLINATION":43.0005,"RA_OF_ASC_NODE":195.5801,"ARG_OF_PERICENTER":301.8014,"MEAN_ANOMALY":159.6262,"EPHEMERIS_TYPE":0,"CLASSIFICATION_TYPE":"U","NORAD_CAT_ID":56387,"ELEMENT_SET_NO":999,"REV_AT_EPOCH":578,"BSTAR":0.072717287,"MEAN_MOTION_DOT":0.0137484,"MEAN_MOTION_DDOT":0},{"OBJECT_NAME":"CZ-2F DEB","OBJECT_ID":"2026-024E","EPOCH":"2026-03-09T06:46:05.636352","MEAN_MOTION":15.25893319,"ECCENTRICITY":0.0230643,"INCLINATION":50.3206,"RA_OF_ASC_NODE":20.6889,"ARG_OF_PERICENTER":278.3013,"MEAN_ANOMALY":79.1857,"EPHEMERIS_TYPE":0,"CLASSIFICATION_TYPE":"U","NORAD_CAT_ID":67718,"ELEMENT_SET_NO":999,"REV_AT_EPOCH":457,"BSTAR":0.0044193489,"MEAN_MOTION_DOT":0.00260029,"MEAN_MOTION_DDOT":0}]
